{"type": "FeatureCollection", "features": [ {"type": "Feature", "properties": {"norad_id": 39122, "name": "EUTELSAT 117 WEST A", "group": "eutelsat", "lat": 0.04084910305055459, "lon": 32.446076380100635, "alt_km": 35790.75756359857, "timestamp": "2025-12-21T03:56:50.525590+00:00", "meta": {"OBJECT_NAME": "EUTELSAT 117 WEST A", "OBJECT_ID": "2013-012A", "EPOCH": "2025-12-20T16:05:44.642976", "MEAN_MOTION": 1.00274638, "ECCENTRICITY": 0.0002811, "INCLINATION": 0.0298, "RA_OF_ASC_NODE": 302.6962, "ARG_OF_PERICENTER": 332.2995, "MEAN_ANOMALY": 299.1641, "EPHEMERIS_TYPE": 0, "CLASSIFICATION_TYPE": "U", "NORAD_CAT_ID": 39122, "ELEMENT_SET_NO": 999, "REV_AT_EPOCH": 4664, "BSTAR": 0, "MEAN_MOTION_DOT": 1e-07, "MEAN_MOTION_DDOT": 0}, "tle": {"line1": "1 39122U 13012A   25354.67065559  .00000010  00000+0  00000+0 0  9995", "line2": "2 39122   0.0298 302.6962 0002811 332.2995 299.1641  1.00274638 46644"}}, "geometry": {"type": "Point", "coordinates": [32.446076380100635, 0.04084910305055459]}}, {"type": "Feature", "properties": {"norad_id": 39163, "name": "EUTELSAT 7B", "group": "eutelsat", "lat": 0.037166065566155246, "lon": 156.1731853783976, "alt_km": 35804.289996102954, "timestamp": "2025-12-21T03:56:50.525601+00:00", "meta": {"OBJECT_NAME": "EUTELSAT 7B", "OBJECT_ID": "2013-022A", "EPOCH": "2025-12-20T18:23:59.818848", "MEAN_MOTION": 1.00270857, "ECCENTRICITY": 0.0004399, "INCLINATION": 0.0652, "RA_OF_ASC_NODE": 0.0607, "ARG_OF_PERICENTER": 322.5454, "MEAN_ANOMALY": 49.9857, "EPHEMERIS_TYPE": 0, "CLASSIFICATION_TYPE": "U", "NORAD_CAT_ID": 39163, "ELEMENT_SET_NO": 999, "REV_AT_EPOCH": 4615, "BSTAR": 0, "MEAN_MOTION_DOT": 7.1e-07, "MEAN_MOTION_DDOT": 0}, "tle": {"line1": "1 39163U 13022A   25354.76666457  .00000071  00000+0  00000+0 0  9992", "line2": "2 39163   0.0652   0.0607 0004399 322.5454  49.9857  1.00270857 46158"}}, "geometry": {"type": "Point", "coordinates": [156.1731853783976, 0.037166065566155246]}}, {"type": "Feature", "properties": {"norad_id": 39612, "name": "EXPRESS-AT1", "group": "eutelsat", "lat": -0.02351844316162098, "lon": -154.80306439219777, "alt_km": 35784.46047088977, "timestamp": "2025-12-21T03:56:50.525612+00:00", "meta": {"OBJECT_NAME": "EXPRESS-AT1", "OBJECT_ID": "2014-010A", "EPOCH": "2025-12-20T20:31:38.478144", "MEAN_MOTION": 1.00271794, "ECCENTRICITY": 8.71e-05, "INCLINATION": 0.0145, "RA_OF_ASC_NODE": 301.7936, "ARG_OF_PERICENTER": 199.4835, "MEAN_ANOMALY": 312.3147, "EPHEMERIS_TYPE": 0, "CLASSIFICATION_TYPE": "U", "NORAD_CAT_ID": 39612, "ELEMENT_SET_NO": 999, "REV_AT_EPOCH": 4303, "BSTAR": 0, "MEAN_MOTION_DOT": 1.02e-06, "MEAN_MOTION_DDOT": 0}, "tle": {"line1": "1 39612U 14010A   25354.85530646  .00000102  00000+0  00000+0 0  9994", "line2": "2 39612   0.0145 301.7936 0000871 199.4835 312.3147  1.00271794 43039"}}, "geometry": {"type": "Point", "coordinates": [-154.80306439219777, -0.02351844316162098]}}, {"type": "Feature", "properties": {"norad_id": 39613, "name": "EXPRESS-AT2", "group": "eutelsat", "lat": -0.03246827409410651, "lon": -70.95601077112872, "alt_km": 35781.90402598839, "timestamp": "2025-12-21T03:56:50.525623+00:00", "meta": {"OBJECT_NAME": "EXPRESS-AT2", "OBJECT_ID": "2014-010B", "EPOCH": "2025-12-20T20:44:38.849856", "MEAN_MOTION": 1.00271149, "ECCENTRICITY": 0.0001039, "INCLINATION": 0.0184, "RA_OF_ASC_NODE": 328.3981, "ARG_OF_PERICENTER": 322.4883, "MEAN_ANOMALY": 249.8231, "EPHEMERIS_TYPE": 0, "CLASSIFICATION_TYPE": "U", "NORAD_CAT_ID": 39613, "ELEMENT_SET_NO": 999, "REV_AT_EPOCH": 4271, "BSTAR": 0, "MEAN_MOTION_DOT": -2.58e-06, "MEAN_MOTION_DDOT": 0}, "tle": {"line1": "1 39613U 14010B   25354.86433854 -.00000258  00000+0  00000+0 0  9992", "line2": "2 39613   0.0184 328.3981 0001039 322.4883 249.8231  1.00271149 42712"}}, "geometry": {"type": "Point", "coordinates": [-70.95601077112872, -0.03246827409410651]}}, {"type": "Feature", "properties": {"norad_id": 39773, "name": "EUTELSAT 3B", "group": "eutelsat", "lat": 0.04818828169683837, "lon": 152.2386533956525, "alt_km": 35783.139669984565, "timestamp": "2025-12-21T03:56:50.525642+00:00", "meta": {"OBJECT_NAME": "EUTELSAT 3B", "OBJECT_ID": "2014-030A", "EPOCH": "2025-12-20T18:22:52.425984", "MEAN_MOTION": 1.00272605, "ECCENTRICITY": 0.0004148, "INCLINATION": 0.0611, "RA_OF_ASC_NODE": 7.2123, "ARG_OF_PERICENTER": 225.9286, "MEAN_ANOMALY": 135.2673, "EPHEMERIS_TYPE": 0, "CLASSIFICATION_TYPE": "U", "NORAD_CAT_ID": 39773, "ELEMENT_SET_NO": 999, "REV_AT_EPOCH": 4227, "BSTAR": 0, "MEAN_MOTION_DOT": 4.3e-07, "MEAN_MOTION_DDOT": 0}, "tle": {"line1": "1 39773U 14030A   25354.76588456  .00000043  00000+0  00000+0 0  9990", "line2": "2 39773   0.0611   7.2123 0004148 225.9286 135.2673  1.00272605 42270"}}, "geometry": {"type": "Point", "coordinates": [152.2386533956525, 0.04818828169683837]}}, {"type": "Feature", "properties": {"norad_id": 40425, "name": "EUTELSAT 115 WEST B", "group": "eutelsat", "lat": -0.008657864226271711, "lon": 34.28956781575034, "alt_km": 35786.78219782222, "timestamp": "2025-12-21T03:56:50.525667+00:00", "meta": {"OBJECT_NAME": "EUTELSAT 115 WEST B", "OBJECT_ID": "2015-010B", "EPOCH": "2025-12-20T14:23:46.907808", "MEAN_MOTION": 1.00268579, "ECCENTRICITY": 2.15e-05, "INCLINATION": 0.0116, "RA_OF_ASC_NODE": 154.8644, "ARG_OF_PERICENTER": 161.3344, "MEAN_ANOMALY": 234.2819, "EPHEMERIS_TYPE": 0, "CLASSIFICATION_TYPE": "U", "NORAD_CAT_ID": 40425, "ELEMENT_SET_NO": 999, "REV_AT_EPOCH": 3960, "BSTAR": 0, "MEAN_MOTION_DOT": -1e-08, "MEAN_MOTION_DDOT": 0}, "tle": {"line1": "1 40425U 15010B   25354.59984847 -.00000001  00000+0  00000+0 0  9995", "line2": "2 40425   0.0116 154.8644 0000215 161.3344 234.2819  1.00268579 39602"}}, "geometry": {"type": "Point", "coordinates": [34.28956781575034, -0.008657864226271711]}}, {"type": "Feature", "properties": {"norad_id": 40875, "name": "EUTELSAT 8 WEST B", "group": "eutelsat", "lat": 0.055482986864914326, "lon": 141.1551097040134, "alt_km": 35797.77223805425, "timestamp": "2025-12-21T03:56:50.525681+00:00", "meta": {"OBJECT_NAME": "EUTELSAT 8 WEST B", "OBJECT_ID": "2015-039B", "EPOCH": "2025-12-20T18:19:45.224832", "MEAN_MOTION": 1.00271065, "ECCENTRICITY": 0.0004277, "INCLINATION": 0.0633, "RA_OF_ASC_NODE": 358.8474, "ARG_OF_PERICENTER": 271.6888, "MEAN_ANOMALY": 85.9999, "EPHEMERIS_TYPE": 0, "CLASSIFICATION_TYPE": "U", "NORAD_CAT_ID": 40875, "ELEMENT_SET_NO": 999, "REV_AT_EPOCH": 3786, "BSTAR": 0, "MEAN_MOTION_DOT": -4.2e-07, "MEAN_MOTION_DDOT": 0}, "tle": {"line1": "1 40875U 15039B   25354.76371788 -.00000042  00000+0  00000+0 0  9993", "line2": "2 40875   0.0633 358.8474 0004277 271.6888  85.9999  1.00271065 37862"}}, "geometry": {"type": "Point", "coordinates": [141.1551097040134, 0.055482986864914326]}}, {"type": "Feature", "properties": {"norad_id": 41310, "name": "EUTELSAT 9B", "group": "eutelsat", "lat": 0.06988960243511767, "lon": 158.14071916141955, "alt_km": 35794.48785095021, "timestamp": "2025-12-21T03:56:50.525692+00:00", "meta": {"OBJECT_NAME": "EUTELSAT 9B", "OBJECT_ID": "2016-005A", "EPOCH": "2025-12-20T18:24:29.771136", "MEAN_MOTION": 1.00272737, "ECCENTRICITY": 0.000447, "INCLINATION": 0.0629, "RA_OF_ASC_NODE": 71.7045, "ARG_OF_PERICENTER": 203.8934, "MEAN_ANOMALY": 99.1175, "EPHEMERIS_TYPE": 0, "CLASSIFICATION_TYPE": "U", "NORAD_CAT_ID": 41310, "ELEMENT_SET_NO": 999, "REV_AT_EPOCH": 3632, "BSTAR": 0, "MEAN_MOTION_DOT": 8.5e-07, "MEAN_MOTION_DDOT": 0}, "tle": {"line1": "1 41310U 16005A   25354.76701124  .00000085  00000+0  00000+0 0  9999", "line2": "2 41310   0.0629  71.7045 0004470 203.8934  99.1175  1.00272737 36321"}}, "geometry": {"type": "Point", "coordinates": [158.14071916141955, 0.06988960243511767]}}, {"type": "Feature", "properties": {"norad_id": 41382, "name": "EUTELSAT 65 WEST A", "group": "eutelsat", "lat": 0.07456941136838159, "lon": 83.99471230266539, "alt_km": 35794.39694299409, "timestamp": "2025-12-21T03:56:50.525703+00:00", "meta": {"OBJECT_NAME": "EUTELSAT 65 WEST A", "OBJECT_ID": "2016-014A", "EPOCH": "2025-12-20T18:03:24.291072", "MEAN_MOTION": 1.00273983, "ECCENTRICITY": 0.0002123, "INCLINATION": 0.053, "RA_OF_ASC_NODE": 332.7718, "ARG_OF_PERICENTER": 299.9872, "MEAN_ANOMALY": 22.4723, "EPHEMERIS_TYPE": 0, "CLASSIFICATION_TYPE": "U", "NORAD_CAT_ID": 41382, "ELEMENT_SET_NO": 999, "REV_AT_EPOCH": 3574, "BSTAR": 0, "MEAN_MOTION_DOT": -2.53e-06, "MEAN_MOTION_DDOT": 0}, "tle": {"line1": "1 41382U 16014A   25354.75236448 -.00000253  00000+0  00000+0 0  9997", "line2": "2 41382   0.0530 332.7718 0002123 299.9872  22.4723  1.00273983 35745"}}, "geometry": {"type": "Point", "coordinates": [83.99471230266539, 0.07456941136838159]}}, {"type": "Feature", "properties": {"norad_id": 41589, "name": "EUTELSAT 117 WEST B", "group": "eutelsat", "lat": -0.010027039696734033, "lon": 32.215696777027034, "alt_km": 35784.94714470539, "timestamp": "2025-12-21T03:56:50.525714+00:00", "meta": {"OBJECT_NAME": "EUTELSAT 117 WEST B", "OBJECT_ID": "2016-038B", "EPOCH": "2025-12-20T16:05:44.642976", "MEAN_MOTION": 1.00273449, "ECCENTRICITY": 4.35e-05, "INCLINATION": 0.0079, "RA_OF_ASC_NODE": 146.2318, "ARG_OF_PERICENTER": 177.0977, "MEAN_ANOMALY": 250.626, "EPHEMERIS_TYPE": 0, "CLASSIFICATION_TYPE": "U", "NORAD_CAT_ID": 41589, "ELEMENT_SET_NO": 999, "REV_AT_EPOCH": 3487, "BSTAR": 0, "MEAN_MOTION_DOT": 1.1e-07, "MEAN_MOTION_DDOT": 0}, "tle": {"line1": "1 41589U 16038B   25354.67065559  .00000011  00000+0  00000+0 0  9997", "line2": "2 41589   0.0079 146.2318 0000435 177.0977 250.6260  1.00273449 34873"}}, "geometry": {"type": "Point", "coordinates": [32.215696777027034, -0.010027039696734033]}}]}